start=new Date('2022-04-24T00:00:00.000Z').valueOf();
sats=[{"MEAN_MOTION_DOT":"0.00000368","MEAN_ANOMALY":"306.1923","ARG_OF_PERICENTER":"53.9232","PERIOD":"95.592","RCS_SIZE":"LARGE","EPHEMERIS_TYPE":"0","PERIAPSIS":"545.973","OBJECT_TYPE":"PAYLOAD","FILE":"3412883","ELEMENT_SET_NO":"999","TLE_LINE1":"1 44741U 19074AE  22113.40672992  .00000368  00000-0  43607-4 0  9990","REF_FRAME":"TEME","EPOCH":"2022-04-23T09:45:41.465088","MEAN_MOTION":"15.06398017","TIME_SYSTEM":"UTC","INCLINATION":"53.0549","SITE":"AFETR","CENTER_NAME":"EARTH","MEAN_MOTION_DDOT":"0.0000000000000","DECAY_DATE":null,"RA_OF_ASC_NODE":"84.5524","CLASSIFICATION_TYPE":"U","BSTAR":"0.00004360700000","NORAD_CAT_ID":"44741","LAUNCH_DATE":"2019-11-11","OBJECT_ID":"2019-074AE","SEMIMAJOR_AXIS":"6925.355","REV_AT_EPOCH":"13500","MEAN_ELEMENT_THEORY":"SGP4","OBJECT_NAME":"STARLINK-1036","TLE_LINE2":"2 44741  53.0549  84.5524 0001800  53.9232 306.1923 15.06398017135002","APOAPSIS":"548.466","COUNTRY_CODE":"US","ECCENTRICITY":"0.00018000","GP_ID":"201879661"},{"SITE":"AFETR","CENTER_NAME":"EARTH","MEAN_MOTION_DDOT":"0.0000000000000","DECAY_DATE":null,"RA_OF_ASC_NODE":"72.6405","CLASSIFICATION_TYPE":"U","BSTAR":"0.00177640000000","LAUNCH_DATE":"2019-11-11","NORAD_CAT_ID":"44742","OBJECT_ID":"2019-074AF","SEMIMAJOR_AXIS":"6904.182","REV_AT_EPOCH":"13512","MEAN_ELEMENT_THEORY":"SGP4","OBJECT_NAME":"STARLINK-1037","TLE_LINE2":"2 44742  52.9960  72.6405 0002038  55.9074 304.2111 15.13332575135120","APOAPSIS":"527.454","COUNTRY_CODE":"US","ECCENTRICITY":"0.00020380","GP_ID":"201879412","MEAN_MOTION_DOT":"0.00031865","MEAN_ANOMALY":"304.2111","ARG_OF_PERICENTER":"55.9074","PERIOD":"95.154","RCS_SIZE":"LARGE","EPHEMERIS_TYPE":"0","PERIAPSIS":"524.640","OBJECT_TYPE":"PAYLOAD","ELEMENT_SET_NO":"999","FILE":"3412883","TLE_LINE1":"1 44742U 19074AF  22113.31964474  .00031865  00000-0  17764-2 0  9999","REF_FRAME":"TEME","EPOCH":"2022-04-23T07:40:17.305536","MEAN_MOTION":"15.13332575","TIME_SYSTEM":"UTC","INCLINATION":"52.9960"},{"TIME_SYSTEM":"UTC","INCLINATION":"53.0551","MEAN_MOTION":"15.06409868","EPOCH":"2022-04-23T09:21:48.178944","TLE_LINE1":"1 44743U 19074AG  22113.39014096 -.00001795  00000-0 -10159-3 0  9997","REF_FRAME":"TEME","OBJECT_TYPE":"PAYLOAD","ELEMENT_SET_NO":"999","FILE":"3412883","PERIAPSIS":"545.665","EPHEMERIS_TYPE":"0","PERIOD":"95.592","RCS_SIZE":"LARGE","MEAN_MOTION_DOT":"-0.00001795","MEAN_ANOMALY":"289.5144","ARG_OF_PERICENTER":"70.6081","GP_ID":"201878661","ECCENTRICITY":"0.00021930","TLE_LINE2":"2 44743  53.0551 104.6322 0002193  70.6081 289.5144 15.06409868134815","OBJECT_NAME":"STARLINK-1038","MEAN_ELEMENT_THEORY":"SGP4","APOAPSIS":"548.702","COUNTRY_CODE":"US","SEMIMAJOR_AXIS":"6925.318","REV_AT_EPOCH":"13481","NORAD_CAT_ID":"44743","LAUNCH_DATE":"2019-11-11","OBJECT_ID":"2019-074AG","MEAN_MOTION_DDOT":"0.0000000000000","BSTAR":"-0.00010159000000","CLASSIFICATION_TYPE":"U","DECAY_DATE":null,"RA_OF_ASC_NODE":"104.6322","SITE":"AFETR","CENTER_NAME":"EARTH"},{"MEAN_MOTION":"15.06394955","INCLINATION":"53.0545","TIME_SYSTEM":"UTC","REF_FRAME":"TEME","TLE_LINE1":"1 44744U 19074AH  22113.40120630  .00001553  00000-0  12312-3 0  9995","EPOCH":"2022-04-23T09:37:44.224320","EPHEMERIS_TYPE":"0","PERIAPSIS":"546.050","FILE":"3412883","ELEMENT_SET_NO":"999","OBJECT_TYPE":"PAYLOAD","ARG_OF_PERICENTER":"52.7573","MEAN_ANOMALY":"307.3571","MEAN_MOTION_DOT":"0.00001553","RCS_SIZE":"LARGE","PERIOD":"95.592","GP_ID":"201878911","ECCENTRICITY":"0.00017030","COUNTRY_CODE":"US","APOAPSIS":"548.408","MEAN_ELEMENT_THEORY":"SGP4","OBJECT_NAME":"STARLINK-1039","TLE_LINE2":"2 44744  53.0545 104.5812 0001703  52.7573 307.3571 15.06394955134728","OBJECT_ID":"2019-074AH","LAUNCH_DATE":"2019-11-11","NORAD_CAT_ID":"44744","REV_AT_EPOCH":"13472","SEMIMAJOR_AXIS":"6925.364","CENTER_NAME":"EARTH","SITE":"AFETR","DECAY_DATE":null,"RA_OF_ASC_NODE":"104.5812","BSTAR":"0.00012312000000","CLASSIFICATION_TYPE":"U","MEAN_MOTION_DDOT":"0.0000000000000"},{"MEAN_MOTION":"15.06395776","TIME_SYSTEM":"UTC","INCLINATION":"53.0551","TLE_LINE1":"1 44746U 19074AK  22113.38646180 -.00000831  00000-0 -36872-4 0  9995","REF_FRAME":"TEME","EPOCH":"2022-04-23T09:16:30.299520","PERIAPSIS":"545.867","EPHEMERIS_TYPE":"0","OBJECT_TYPE":"PAYLOAD","FILE":"3412883","ELEMENT_SET_NO":"999","MEAN_MOTION_DOT":"-0.00000831","MEAN_ANOMALY":"315.4067","ARG_OF_PERICENTER":"44.7079","PERIOD":"95.592","RCS_SIZE":"LARGE","ECCENTRICITY":"0.00019630","GP_ID":"201879162","TLE_LINE2":"2 44746  53.0551 104.6552 0001963  44.7079 315.4067 15.06395776134721","MEAN_ELEMENT_THEORY":"SGP4","OBJECT_NAME":"STARLINK-1041","APOAPSIS":"548.586","COUNTRY_CODE":"US","NORAD_CAT_ID":"44746","LAUNCH_DATE":"2019-11-11","OBJECT_ID":"2019-074AK","SEMIMAJOR_AXIS":"6925.362","REV_AT_EPOCH":"13472","SITE":"AFETR","CENTER_NAME":"EARTH","MEAN_MOTION_DDOT":"0.0000000000000","CLASSIFICATION_TYPE":"U","BSTAR":"-0.00003687200000","DECAY_DATE":null,"RA_OF_ASC_NODE":"104.6552"},{"APOAPSIS":"548.268","COUNTRY_CODE":"US","OBJECT_NAME":"STARLINK-1042","MEAN_ELEMENT_THEORY":"SGP4","TLE_LINE2":"2 44747  53.0547 104.8168 0001493  47.0457 313.0657 15.06393224134721","GP_ID":"201879912","ECCENTRICITY":"0.00014930","DECAY_DATE":null,"RA_OF_ASC_NODE":"104.8168","CLASSIFICATION_TYPE":"U","BSTAR":"0.00001315800000","MEAN_MOTION_DDOT":"0.0000000000000","CENTER_NAME":"EARTH","SITE":"AFETR","REV_AT_EPOCH":"13472","SEMIMAJOR_AXIS":"6925.369","OBJECT_ID":"2019-074AL","NORAD_CAT_ID":"44747","LAUNCH_DATE":"2019-11-11","EPOCH":"2022-04-23T08:23:25.595520","REF_FRAME":"TEME","TLE_LINE1":"1 44747U 19074AL  22113.34960180 -.00000086  00000-0  13158-4 0  9994","INCLINATION":"53.0547","TIME_SYSTEM":"UTC","MEAN_MOTION":"15.06393224","RCS_SIZE":"LARGE","PERIOD":"95.593","ARG_OF_PERICENTER":"47.0457","MEAN_ANOMALY":"313.0657","MEAN_MOTION_DOT":"-0.00000086","ELEMENT_SET_NO":"999","FILE":"3412883","OBJECT_TYPE":"PAYLOAD","EPHEMERIS_TYPE":"0","PERIAPSIS":"546.200"},{"REV_AT_EPOCH":"13473","SEMIMAJOR_AXIS":"6925.371","OBJECT_ID":"2019-074AM","LAUNCH_DATE":"2019-11-11","NORAD_CAT_ID":"44748","DECAY_DATE":null,"RA_OF_ASC_NODE":"104.3793","CLASSIFICATION_TYPE":"U","BSTAR":"-0.00006563800000","MEAN_MOTION_DDOT":"0.0000000000000","CENTER_NAME":"EARTH","SITE":"AFETR","GP_ID":"201878162","ECCENTRICITY":"0.00017520","COUNTRY_CODE":"US","APOAPSIS":"548.450","OBJECT_NAME":"STARLINK-1043","MEAN_ELEMENT_THEORY":"SGP4","TLE_LINE2":"2 44748  53.0549 104.3793 0001752  60.9912 299.1253 15.06392552134731","FILE":"3412883","ELEMENT_SET_NO":"999","OBJECT_TYPE":"PAYLOAD","EPHEMERIS_TYPE":"0","PERIAPSIS":"546.023","RCS_SIZE":"LARGE","PERIOD":"95.593","ARG_OF_PERICENTER":"60.9912","MEAN_ANOMALY":"299.1253","MEAN_MOTION_DOT":"-0.00001259","INCLINATION":"53.0549","TIME_SYSTEM":"UTC","MEAN_MOTION":"15.06392552","EPOCH":"2022-04-23T10:41:25.870848","REF_FRAME":"TEME","TLE_LINE1":"1 44748U 19074AM  22113.44543832 -.00001259  00000-0 -65638-4 0  9991"},{"MEAN_MOTION_DOT":"0.00002225","MEAN_ANOMALY":"312.2521","ARG_OF_PERICENTER":"47.8638","PERIOD":"95.592","RCS_SIZE":"LARGE","EPHEMERIS_TYPE":"0","PERIAPSIS":"545.814","OBJECT_TYPE":"PAYLOAD","FILE":"3412883","ELEMENT_SET_NO":"999","TLE_LINE1":"1 44751U 19074AQ  22113.26113792  .00002225  00000-0  16820-3 0  9993","REF_FRAME":"TEME","EPOCH":"2022-04-23T06:16:02.316288","MEAN_MOTION":"15.06403442","TIME_SYSTEM":"UTC","INCLINATION":"53.0537","SITE":"AFETR","CENTER_NAME":"EARTH","MEAN_MOTION_DDOT":"0.0000000000000","DECAY_DATE":null,"RA_OF_ASC_NODE":"105.2173","BSTAR":"0.00016820000000","CLASSIFICATION_TYPE":"U","LAUNCH_DATE":"2019-11-11","NORAD_CAT_ID":"44751","OBJECT_ID":"2019-074AQ","SEMIMAJOR_AXIS":"6925.338","REV_AT_EPOCH":"13470","MEAN_ELEMENT_THEORY":"SGP4","OBJECT_NAME":"STARLINK-1046","TLE_LINE2":"2 44751  53.0537 105.2173 0002005  47.8638 312.2521 15.06403442134708","APOAPSIS":"548.592","COUNTRY_CODE":"US","ECCENTRICITY":"0.00020050","GP_ID":"201878412"},{"OBJECT_TYPE":"PAYLOAD","ELEMENT_SET_NO":"999","FILE":"3413019","PERIAPSIS":"545.734","EPHEMERIS_TYPE":"0","PERIOD":"95.592","RCS_SIZE":"LARGE","MEAN_ANOMALY":"307.7975","MEAN_MOTION_DOT":"0.00002646","ARG_OF_PERICENTER":"52.3207","TIME_SYSTEM":"UTC","INCLINATION":"53.0559","MEAN_MOTION":"15.06403121","EPOCH":"2022-04-23T19:29:32.745984","TLE_LINE1":"1 44752U 19074AR  22113.81218456  .00002646  00000-0  19644-3 0  9992","REF_FRAME":"TEME","SEMIMAJOR_AXIS":"6925.339","REV_AT_EPOCH":"13523","LAUNCH_DATE":"2019-11-11","NORAD_CAT_ID":"44752","OBJECT_ID":"2019-074AR","MEAN_MOTION_DDOT":"0.0000000000000","CLASSIFICATION_TYPE":"U","BSTAR":"0.00019644000000","RA_OF_ASC_NODE":"82.7432","DECAY_DATE":null,"SITE":"AFETR","CENTER_NAME":"EARTH","GP_ID":"201887308","ECCENTRICITY":"0.00021230","TLE_LINE2":"2 44752  53.0559  82.7432 0002123  52.3207 307.7975 15.06403121135239","MEAN_ELEMENT_THEORY":"SGP4","OBJECT_NAME":"STARLINK-1047","APOAPSIS":"548.674","COUNTRY_CODE":"US"},{"REV_AT_EPOCH":"13530","SEMIMAJOR_AXIS":"6925.350","OBJECT_ID":"2019-074AS","NORAD_CAT_ID":"44753","LAUNCH_DATE":"2019-11-11","CLASSIFICATION_TYPE":"U","BSTAR":"0.00000071332000","RA_OF_ASC_NODE":"63.8988","DECAY_DATE":null,"MEAN_MOTION_DDOT":"0.0000000000000","CENTER_NAME":"EARTH","SITE":"AFETR","ECCENTRICITY":"0.00014920","GP_ID":"201879413","APOAPSIS":"548.248","COUNTRY_CODE":"US","TLE_LINE2":"2 44753  53.0565  63.8988 0001492  57.0585 303.0547 15.06399667135303","OBJECT_NAME":"STARLINK-1048","MEAN_ELEMENT_THEORY":"SGP4","ELEMENT_SET_NO":"999","FILE":"3412883","OBJECT_TYPE":"PAYLOAD","PERIAPSIS":"546.181","EPHEMERIS_TYPE":"0","RCS_SIZE":"LARGE","PERIOD":"95.592","ARG_OF_PERICENTER":"57.0585","MEAN_MOTION_DOT":"-0.00000271","MEAN_ANOMALY":"303.0547","INCLINATION":"53.0565","TIME_SYSTEM":"UTC","MEAN_MOTION":"15.06399667","EPOCH":"2022-04-23T13:15:20.649312","REF_FRAME":"TEME","TLE_LINE1":"1 44753U 19074AS  22113.55232233 -.00000271  00000-0  71332-6 0  9991"}];
